{
  "type": "FeatureCollection",
  "features": [
    {
      "type": "Feature",
      "properties": {
        "shapeName": "Phra Nakhon Si Ayutthaya Province",
        "shapeISO": "TH-14",
        "shapeID": "36821470B14521381139968",
        "shapeGroup": "THA",
        "shapeType": "ADM1"
      },
      "geometry": {
        "type": "Polygon",
        "coordinates": [
          [
            [
              100.5938721,
              14.6558323
            ],
            [
              100.5877686,
              14.6594429
            ],
            [
              100.5669403,
              14.6636105
            ],
            [
              100.5535889,
              14.6630545
            ],
            [
              100.5508118,
              14.6647205
            ],
            [
              100.5466537,
              14.6786098
            ],
            [
              100.5352631,
              14.6808319
            ],
            [
              100.5255432,
              14.6761093
            ],
            [
              100.5219269,
              14.6774979
            ],
            [
              100.5155487,
              14.6858311
            ],
            [
              100.5149994,
              14.6822205
            ],
            [
              100.5105362,
              14.6769428
            ],
            [
              100.5177612,
              14.6611099
            ],
            [
              100.5180511,
              14.6569424
            ],
            [
              100.5163879,
              14.6488876
            ],
            [
              100.5108185,
              14.6366653
            ],
            [
              100.5080414,
              14.6147194
            ],
            [
              100.5052567,
              14.6088867
            ],
            [
              100.5038834,
              14.6011086
            ],
            [
              100.5027771,
              14.5841637
            ],
            [
              100.4949799,
              14.5730534
            ],
            [
              100.4897003,
              14.5694427
            ],
            [
              100.4894333,
              14.5652752
            ],
            [
              100.5005493,
              14.5480537
            ],
            [
              100.5016632,
              14.5402756
            ],
            [
              100.4994202,
              14.5319424
            ],
            [
              100.4985962,
              14.5205536
            ],
            [
              100.5008163,
              14.5127773
            ],
            [
              100.5069427,
              14.5049992
            ],
            [
              100.5086136,
              14.4980526
            ],
            [
              100.5049896,
              14.4605541
            ],
            [
              100.5030518,
              14.4569416
            ],
            [
              100.4713669,
              14.4380531
            ],
            [
              100.447197,
              14.4469433
            ],
            [
              100.4272003,
              14.4438877
            ],
            [
              100.4249878,
              14.4466648
            ],
            [
              100.4235992,
              14.454443
            ],
            [
              100.4244232,
              14.4963856
            ],
            [
              100.4199829,
              14.5061092
            ],
            [
              100.4144287,
              14.5099983
            ],
            [
              100.4033203,
              14.5074997
            ],
            [
              100.3944397,
              14.5086098
            ],
            [
              100.3916626,
              14.5077763
            ],
            [
              100.3808136,
              14.4994411
            ],
            [
              100.3713684,
              14.494997
            ],
            [
              100.3633118,
              14.4972191
            ],
            [
              100.3547134,
              14.4963856
            ],
            [
              100.332489,
              14.4908314
            ],
            [
              100.2963715,
              14.4983311
            ],
            [
              100.2788696,
              14.4877758
            ],
            [
              100.2649994,
              14.492775
            ],
            [
              100.2577667,
              14.4905529
            ],
            [
              100.2538834,
              14.4863853
            ],
            [
              100.2555466,
              14.4744415
            ],
            [
              100.2541733,
              14.4572201
            ],
            [
              100.2572174,
              14.4466648
            ],
            [
              100.2697067,
              14.4224987
            ],
            [
              100.2744293,
              14.4183311
            ],
            [
              100.2797089,
              14.4094429
            ],
            [
              100.2841492,
              14.3955536
            ],
            [
              100.2774811,
              14.3783302
            ],
            [
              100.2752686,
              14.3666649
            ],
            [
              100.2763824,
              14.329443
            ],
            [
              100.2688828,
              14.3183308
            ],
            [
              100.266098,
              14.3022213
            ],
            [
              100.2566528,
              14.288332
            ],
            [
              100.2536011,
              14.2774982
            ],
            [
              100.2530518,
              14.2555542
            ],
            [
              100.2552567,
              14.2269421
            ],
            [
              100.2536011,
              14.2188873
            ],
            [
              100.2494202,
              14.2088871
            ],
            [
              100.2422028,
              14.1980534
            ],
            [
              100.2222137,
              14.1802769
            ],
            [
              100.2210388,
              14.1772976
            ],
            [
              100.2269287,
              14.1777763
            ],
            [
              100.247757,
              14.1747208
            ],
            [
              100.2744293,
              14.1686096
            ],
            [
              100.2847137,
              14.1636105
            ],
            [
              100.2861023,
              14.1613884
            ],
            [
              100.2796192,
              14.1264577
            ],
            [
              100.2911393,
              14.1402306
            ],
            [
              100.3038629,
              14.1403082
            ],
            [
              100.3077541,
              14.1395866
            ],
            [
              100.3082361,
              14.1359885
            ],
            [
              100.3181974,
              14.131326
            ],
            [
              100.3183831,
              14.1326328
            ],
            [
              100.3305973,
              14.1333657
            ],
            [
              100.330085,
              14.1281211
            ],
            [
              100.3326259,
              14.1280312
            ],
            [
              100.3446339,
              14.1166112
            ],
            [
              100.3841629,
              14.1122189
            ],
            [
              100.4566936,
              14.1128816
            ],
            [
              100.4894333,
              14.1094418
            ],
            [
              100.5008163,
              14.1119423
            ],
            [
              100.5160872,
              14.1213122
            ],
            [
              100.5249263,
              14.1251036
            ],
            [
              100.5313413,
              14.1198695
            ],
            [
              100.5459823,
              14.1147004
            ],
            [
              100.5497819,
              14.1104096
            ],
            [
              100.553483,
              14.1111848
            ],
            [
              100.5528683,
              14.113292
            ],
            [
              100.5540843,
              14.1149889
            ],
            [
              100.5519109,
              14.117897
            ],
            [
              100.5549921,
              14.119738
            ],
            [
              100.5573966,
              14.119802
            ],
            [
              100.561024,
              14.1172214
            ],
            [
              100.5610773,
              14.1205917
            ],
            [
              100.5629535,
              14.1223389
            ],
            [
              100.5734222,
              14.1224423
            ],
            [
              100.5818085,
              14.1285273
            ],
            [
              100.6058854,
              14.1353503
            ],
            [
              100.6175741,
              14.1445339
            ],
            [
              100.6225904,
              14.1446238
            ],
            [
              100.6925057,
              14.181345
            ],
            [
              100.8212008,
              14.2425134
            ],
            [
              100.8231256,
              14.2455593
            ],
            [
              100.8230362,
              14.2727757
            ],
            [
              100.8205414,
              14.2852764
            ],
            [
              100.8219299,
              14.3024979
            ],
            [
              100.8208313,
              14.3149986
            ],
            [
              100.8172073,
              14.3197193
            ],
            [
              100.8135986,
              14.3213863
            ],
            [
              100.7835999,
              14.3205528
            ],
            [
              100.777771,
              14.3241653
            ],
            [
              100.7763824,
              14.3274965
            ],
            [
              100.7774811,
              14.3308315
            ],
            [
              100.7827606,
              14.3391647
            ],
            [
              100.7905426,
              14.3597202
            ],
            [
              100.7927628,
              14.3719435
            ],
            [
              100.7916565,
              14.3844433
            ],
            [
              100.7835999,
              14.394722
            ],
            [
              100.7686005,
              14.4033318
            ],
            [
              100.7616577,
              14.4102764
            ],
            [
              100.7611084,
              14.4186096
            ],
            [
              100.7636108,
              14.4263878
            ],
            [
              100.7588806,
              14.4441643
            ],
            [
              100.7677612,
              14.4869423
            ],
            [
              100.7649994,
              14.4930534
            ],
            [
              100.750267,
              14.5058327
            ],
            [
              100.7485962,
              14.5136108
            ],
            [
              100.7530518,
              14.51861
            ],
            [
              100.7636108,
              14.521944
            ],
            [
              100.7688828,
              14.5258312
            ],
            [
              100.7722168,
              14.5499992
            ],
            [
              100.7686005,
              14.5652752
            ],
            [
              100.7636108,
              14.5694427
            ],
            [
              100.7522125,
              14.5724983
            ],
            [
              100.7327576,
              14.5686092
            ],
            [
              100.7194366,
              14.5683308
            ],
            [
              100.7066498,
              14.5699978
            ],
            [
              100.6885834,
              14.5661087
            ],
            [
              100.6791534,
              14.560276
            ],
            [
              100.6494293,
              14.5488873
            ],
            [
              100.6241531,
              14.5461102
            ],
            [
              100.6119232,
              14.5474987
            ],
            [
              100.6044312,
              14.5502758
            ],
            [
              100.5983276,
              14.5536098
            ],
            [
              100.5944366,
              14.5588865
            ],
            [
              100.5913696,
              14.5736084
            ],
            [
              100.5869293,
              14.578886
            ],
            [
              100.5761032,
              14.5858307
            ],
            [
              100.5711136,
              14.5952759
            ],
            [
              100.5713806,
              14.6033306
            ],
            [
              100.5910873,
              14.6449986
            ],
            [
              100.5938721,
              14.6558323
            ]
          ]
        ]
      }
    }
  ]
}
